NORAD_CAT_ID,OBJECT_NAME,OBJECT_TYPE,EPOCH,MEAN_MOTION,ECCENTRICITY,INCLINATION,RA_OF_ASC_NODE,ARG_OF_PERICENTER,MEAN_ANOMALY,BSTAR,MEAN_MOTION_DOT,MEAN_MOTION_DDOT,TLE_LINE0,TLE_LINE1,TLE_LINE2,SEMIMAJOR_AXIS,PERIOD,APOGEE,PERIGEE,DECAYED
51789.0,STARLINK-3639,PAYLOAD,2023-04-28 17:30:43,15.08847835,5.92e-05,53.2162,4.6161,109.3291,250.7766,-0.00054801,-9e-05,0.0,0 STARLINK-3639,1 51789U 22017X   23118.72967404 -.00009000  00000-0 -54801-3 0  9998,2 51789  53.2162   4.6161 0000592 109.3291 250.7766 15.08847835 66026,6917.856,95.437,540.131,539.312,0.0
51789.0,STARLINK-3639,PAYLOAD,2023-04-29 01:27:39,15.08852217,6.49e-05,53.217,3.1297,101.3655,258.741,0.00020731,3.014e-05,0.0,0 STARLINK-3639,1 51789U 22017X   23119.06087312  .00003014  00000-0  20731-3 0  9999,2 51789  53.2170   3.1297 0000649 101.3655 258.7410 15.08852217 64424,6917.843,95.437,540.157,539.259,0.0
51789.0,STARLINK-3639,PAYLOAD,2023-04-29 23:43:03,15.08847253,7.63e-05,53.2179,358.9675,94.2181,265.8899,0.00043151,6.588e-05,0.0,0 STARLINK-3639,1 51789U 22017X   23119.98823593  .00006588  00000-0  43151-3 0  9999,2 51789  53.2179 358.9675 0000763  94.2181 265.8899 15.08847253 66218,6917.858,95.437,540.251,539.195,0.0
51789.0,STARLINK-3639,PAYLOAD,2023-04-30 20:23:04,15.08839478,7.33e-05,53.2185,355.1016,109.064,251.0431,0.00026213,3.887e-05,0.0,0 STARLINK-3639,1 51789U 22017X   23120.84936051  .00003887  00000-0  26213-3 0  9999,2 51789  53.2185 355.1016 0000733 109.0640 251.0431 15.08839478 66348,6917.882,95.438,540.254,539.24,0.0
51789.0,STARLINK-3639,PAYLOAD,2023-05-01 01:09:14,15.08839282,7.11e-05,53.218,354.2109,95.5113,264.596,0.00019632,2.838e-05,0.0,0 STARLINK-3639,1 51789U 22017X   23121.04808188  .00002838  00000-0  19632-3 0  9993,2 51789  53.2180 354.2109 0000711  95.5113 264.5960 15.08839282 64725,6917.883,95.438,540.239,539.256,0.0
51789.0,STARLINK-3639,PAYLOAD,2023-05-01 21:49:14,15.08851115,8.36e-05,53.2184,350.3453,75.7057,284.4028,0.00030835,4.625e-05,0.0,0 STARLINK-3639,1 51789U 22017X   23121.90919929  .00004625  00000-0  30835-3 0  9998,2 51789  53.2184 350.3453 0000836  75.7057 284.4028 15.08851115 66506,6917.846,95.437,540.29,539.133,0.0
51789.0,STARLINK-3639,PAYLOAD,2023-05-02 01:00:00,15.08854467,7.45e-05,53.2183,349.7479,83.1687,276.939,0.00052508,8.082e-05,0.0,0 STARLINK-3639,1 51789U 22017X   23122.04167810  .00008082  00000-0  52508-3 0  9990,2 51789  53.2183 349.7479 0000745  83.1687 276.9390 15.08854467 64875,6917.836,95.437,540.217,539.186,0.0
51789.0,STARLINK-3639,PAYLOAD,2023-05-02 20:04:38,15.08842445,9.6e-05,53.2183,346.1811,72.1912,287.9185,7.6622e-05,9.32e-06,0.0,0 STARLINK-3639,1 51789U 22017X   23122.83655966  .00000932  00000-0  76622-4 0  9991,2 51789  53.2183 346.1811 0000960  72.1912 287.9185 15.08842445 66648,6917.873,95.437,540.402,539.074,0.0
51789.0,STARLINK-3639,PAYLOAD,2023-05-02 21:40:01,15.08846642,8.95e-05,53.2177,345.8843,71.3391,288.7698,0.00017446,2.49e-05,0.0,0 STARLINK-3639,1 51789U 22017X   23122.90279830  .00002490  00000-0  17446-3 0  9990,2 51789  53.2177 345.8843 0000895  71.3391 288.7698 15.08846642 65001,6917.86,95.437,540.344,539.106,0.0
51789.0,STARLINK-3639,PAYLOAD,2023-05-03 00:50:47,15.08850449,8.8e-05,53.2178,345.2887,69.4903,290.6184,0.00022141,3.239e-05,0.0,0 STARLINK-3639,1 51789U 22017X   23123.03527602  .00003239  00000-0  22141-3 0  9998,2 51789  53.2178 345.2887 0000880  69.4903 290.6184 15.08850449 66671,6917.848,95.437,540.322,539.105,0.0
51789.0,STARLINK-3639,PAYLOAD,2023-05-03 19:55:25,15.08836826,8.94e-05,53.2177,341.7203,85.5561,274.5533,-7.7361e-05,-1.519e-05,0.0,0 STARLINK-3639,1 51789U 22017X   23123.83016095 -.00001519  00000-0 -77361-4 0  9991,2 51789  53.2177 341.7203 0000894  85.5561 274.5533 15.08836826 66792,6917.89,95.438,540.374,539.137,0.0
51789.0,STARLINK-3639,PAYLOAD,2023-05-03 21:30:48,15.08840788,8.63e-05,53.2176,341.4229,86.0099,274.0992,-3.7191e-05,-8.8e-06,0.0,0 STARLINK-3639,1 51789U 22017X   23123.89639999 -.00000880  00000-0 -37191-4 0  9998,2 51789  53.2176 341.4229 0000863  86.0099 274.0992 15.08840788 65159,6917.878,95.438,540.34,539.146,0.0
51789.0,STARLINK-3639,PAYLOAD,2023-05-04 02:16:58,15.08846304,7.77e-05,53.2175,340.5307,91.6746,268.4335,5.0932e-05,5.23e-06,0.0,0 STARLINK-3639,1 51789U 22017X   23124.09511669  .00000523  00000-0  50932-4 0  9994,2 51789  53.2175 340.5307 0000777  91.6746 268.4335 15.08846304 66834,6917.861,95.437,540.264,539.189,0.0
51789.0,STARLINK-3639,PAYLOAD,2023-05-04 13:24:40,15.08838978,7.24e-05,53.2163,338.4491,94.9341,265.1734,9.5179e-05,1.227e-05,0.0,0 STARLINK-3639,1 51789U 22017X   23124.55880203  .00001227  00000-0  95179-4 0  9992,2 51789  53.2163 338.4491 0000724  94.9341 265.1734 15.08838978 66903,6917.884,95.438,540.249,539.248,0.0
51789.0,STARLINK-3639,PAYLOAD,2023-05-04 21:21:35,15.08847732,7.48e-05,53.2167,336.9626,94.4828,265.625,0.00023243,3.414e-05,0.0,0 STARLINK-3639,1 51789U 22017X   23124.88999737  .00003414  00000-0  23243-3 0  9993,2 51789  53.2167 336.9626 0000748  94.4828 265.6250 15.08847732 65300,6917.857,95.437,540.239,539.204,0.0
51789.0,STARLINK-3639,PAYLOAD,2023-05-04 22:56:58,15.08850702,7.99e-05,53.2168,336.665,96.7035,263.4048,0.00030698,4.603e-05,0.0,0 STARLINK-3639,1 51789U 22017X   23124.95623659  .00004603  00000-0  30698-3 0  9991,2 51789  53.2168 336.6650 0000799  96.7035 263.4048 15.08850702 66961,6917.848,95.437,540.265,539.16,0.0
51789.0,STARLINK-3639,PAYLOAD,2023-05-05 21:12:23,15.08841634,8.74e-05,53.2162,332.5021,90.5046,269.6046,0.00026997,4.012e-05,0.0,0 STARLINK-3639,1 51789U 22017X   23125.88360453  .00004012  00000-0  26997-3 0  9995,2 51789  53.2162 332.5021 0000874  90.5046 269.6046 15.08841634 65453,6917.875,95.437,540.345,539.136,0.0
51789.0,STARLINK-3639,PAYLOAD,2023-05-05 22:47:46,15.08844548,8.93e-05,53.2162,332.2045,95.0935,265.0159,0.00036485,5.524e-05,0.0,0 STARLINK-3639,1 51789U 22017X   23125.94984398  .00005524  00000-0  36485-3 0  9994,2 51789  53.2162 332.2045 0000893  95.0935 265.0159 15.08844548 67111,6917.866,95.437,540.349,539.114,0.0
51789.0,STARLINK-3639,PAYLOAD,2023-05-06 01:58:32,15.08850719,8.01e-05,53.2159,331.6093,93.9806,266.1278,0.00057371,8.857e-05,0.0,0 STARLINK-3639,1 51789U 22017X   23126.08232283  .00008857  00000-0  57371-3 0  9998,2 51789  53.2159 331.6093 0000801  93.9806 266.1278 15.08850719 65485,6917.848,95.437,540.267,539.159,0.0
51789.0,STARLINK-3639,PAYLOAD,2023-05-06 21:03:10,15.08851051,9.49e-05,53.216,328.0408,94.7065,265.4035,0.00054281,8.364e-05,0.0,0 STARLINK-3639,1 51789U 22017X   23126.87720218  .00008364  00000-0  54281-3 0  9995,2 51789  53.2160 328.0408 0000949  94.7065 265.4035 15.08851051 65603,6917.847,95.437,540.368,539.055,0.0
51789.0,STARLINK-3639,PAYLOAD,2023-05-07 19:18:34,15.08839449,9.86e-05,53.2164,323.8765,89.1547,270.9558,0.00021068,3.067e-05,0.0,0 STARLINK-3639,1 51789U 22017X   23127.80456772  .00003067  00000-0  21068-3 0  9992,2 51789  53.2164 323.8765 0000986  89.1547 270.9558 15.08839449 67396,6917.882,95.438,540.429,539.065,0.0
51789.0,STARLINK-3639,PAYLOAD,2023-05-08 19:09:21,15.08845223,7.62e-05,53.2165,319.4159,90.5895,269.5185,0.00019547,2.825e-05,0.0,0 STARLINK-3639,1 51789U 22017X   23128.79816569  .00002825  00000-0  19547-3 0  9995,2 51789  53.2165 319.4159 0000762  90.5895 269.5185 15.08845223 65899,6917.864,95.437,540.257,539.202,0.0
51789.0,STARLINK-3639,PAYLOAD,2023-05-09 22:10:54,15.08852728,9.52e-05,53.2167,314.3614,74.9922,285.1176,0.00033295,5.017e-05,0.0,0 STARLINK-3639,1 51789U 22017X   23129.92424602  .00005017  00000-0  33295-3 0  9996,2 51789  53.2167 314.3614 0000952  74.9922 285.1176 15.08852728 66061,6917.841,95.437,540.365,539.048,0.0
51789.0,STARLINK-3639,PAYLOAD,2023-05-10 18:50:55,15.08848129,8.02e-05,53.2163,310.4955,79.1051,281.0031,0.00022635,3.317e-05,0.0,0 STARLINK-3639,1 51789U 22017X   23130.78536794  .00003317  00000-0  22635-3 0  9995,2 51789  53.2163 310.4955 0000802  79.1051 281.0031 15.08848129 67848,6917.856,95.437,540.275,539.166,0.0
51789.0,STARLINK-3639,PAYLOAD,2023-05-11 04:23:14,15.08845562,8.95e-05,53.2168,308.7114,81.7156,278.3938,0.0001829,2.625e-05,0.0,0 STARLINK-3639,1 51789U 22017X   23131.18280762  .00002625  00000-0  18290-3 0  9994,2 51789  53.2168 308.7114 0000895  81.7156 278.3938 15.08845562 66254,6917.863,95.437,540.348,539.109,0.0
51789.0,STARLINK-3639,PAYLOAD,2023-05-11 18:41:43,15.08840045,9.32e-05,53.2171,306.0373,88.7333,271.3766,6.0919e-05,6.82e-06,0.0,0 STARLINK-3639,1 51789U 22017X   23131.77897018  .00000682  00000-0  60919-4 0  9994,2 51789  53.2171 306.0373 0000932  88.7333 271.3766 15.08840045 67997,6917.88,95.438,540.39,539.101,0.0
51789.0,STARLINK-3639,PAYLOAD,2023-05-12 04:14:01,15.08839173,9.6e-05,53.217,304.2546,93.6953,266.4149,2.8278e-05,1.62e-06,0.0,0 STARLINK-3639,1 51789U 22017X   23132.17641093  .00000162  00000-0  28278-4 0  9994,2 51789  53.2170 304.2546 0000960  93.6953 266.4149 15.08839173 66407,6917.883,95.438,540.412,539.084,0.0
51789.0,STARLINK-3639,PAYLOAD,2023-05-12 16:57:07,15.08840403,0.0001062,53.216,301.8756,115.7178,244.3924,4.4867e-05,4.26e-06,0.0,0 STARLINK-3639,1 51789U 22017X   23132.70633164  .00000426  00000-0  44867-4 0  9998,2 51789  53.2160 301.8756 0001062 115.7178 244.3924 15.08840403 66483,6917.879,95.438,540.479,539.009,0.0
51789.0,STARLINK-3639,PAYLOAD,2023-05-13 04:04:48,15.08845387,8.98e-05,53.2159,299.7945,97.0647,263.0448,0.00014901,2.085e-05,0.0,0 STARLINK-3639,1 51789U 22017X   23133.17000892  .00002085  00000-0  14901-3 0  9994,2 51789  53.2159 299.7945 0000898  97.0647 263.0448 15.08845387 68202,6917.864,95.437,540.35,539.108,0.0
51789.0,STARLINK-3639,PAYLOAD,2023-05-13 18:23:17,15.08840911,9.71e-05,53.2162,297.1171,88.0099,272.1004,7.8887e-05,9.68e-06,0.0,0 STARLINK-3639,1 51789U 22017X   23133.76617177  .00000968  00000-0  78887-4 0  9991,2 51789  53.2162 297.1171 0000971  88.0099 272.1004 15.08840911 66645,6917.878,95.437,540.414,539.071,0.0
